[{"OBJECT_NAME":"BRO-13","OBJECT_ID":"2024-043K","EPOCH":"2026-03-09T22:19:47.829216","MEAN_MOTION":14.96296765,"ECCENTRICITY":0.00083947,"INCLINATION":97.8333,"RA_OF_ASC_NODE":199.7446,"ARG_OF_PERICENTER":338.0901,"MEAN_ANOMALY":21.996,"EPHEMERIS_TYPE":0,"CLASSIFICATION_TYPE":"U","NORAD_CAT_ID":59107,"ELEMENT_SET_NO":999,"REV_AT_EPOCH":10977,"BSTAR":0.00013050562,"MEAN_MOTION_DOT":1.416e-5,"MEAN_MOTION_DDOT":0},{"OBJECT_NAME":"STARLINK-33985","OBJECT_ID":"2025-098T","EPOCH":"2026-03-09T22:38:13.435584","MEAN_MOTION":14.983213,"ECCENTRICITY":0.00023047,"INCLINATION":70.0004,"RA_OF_ASC_NODE":273.6729,"ARG_OF_PERICENTER":275.3083,"MEAN_ANOMALY":84.7813,"EPHEMERIS_TYPE":0,"CLASSIFICATION_TYPE":"U","NORAD_CAT_ID":63943,"ELEMENT_SET_NO":999,"REV_AT_EPOCH":4659,"BSTAR":0.00043903687,"MEAN_MOTION_DOT":5.148e-5,"MEAN_MOTION_DDOT":0}]
